[{"OBJECT_NAME":"SENTINEL-3A","OBJECT_ID":"2016-011A","EPOCH":"2026-03-09T21:54:08.177760","MEAN_MOTION":14.26741759,"ECCENTRICITY":0.00012494,"INCLINATION":98.6228,"RA_OF_ASC_NODE":137.6961,"ARG_OF_PERICENTER":99.0654,"MEAN_ANOMALY":261.0668,"EPHEMERIS_TYPE":0,"CLASSIFICATION_TYPE":"U","NORAD_CAT_ID":41335,"ELEMENT_SET_NO":999,"REV_AT_EPOCH":52390,"BSTAR":8.2696554e-5,"MEAN_MOTION_DOT":1.57e-6,"MEAN_MOTION_DDOT":0},{"OBJECT_NAME":"METEOR 2-8 DEB","OBJECT_ID":"1982-025Q","EPOCH":"2026-03-09T22:12:16.157664","MEAN_MOTION":14.31820177,"ECCENTRICITY":0.00255378,"INCLINATION":82.5296,"RA_OF_ASC_NODE":278.1582,"ARG_OF_PERICENTER":245.163,"MEAN_ANOMALY":114.69,"EPHEMERIS_TYPE":0,"CLASSIFICATION_TYPE":"U","NORAD_CAT_ID":36330,"ELEMENT_SET_NO":999,"REV_AT_EPOCH":69979,"BSTAR":0.0016993778,"MEAN_MOTION_DOT":4.575e-5,"MEAN_MOTION_DDOT":0}]
